STARLINK-2078
1 27675C 21012BH  21325.16666083  .00007646  00000-0  51224-3 0  3257
2 27675  53.0552 257.4765 0002099  59.4934 268.6024 15.06394737    15
